{"type": "FeatureCollection", "features": [ {"type": "Feature", "properties": {"norad_id": 66629, "name": "STARLINK-35956", "group": "last-30-days", "lat": 50.42577029438664, "lon": -98.70030794420028, "alt_km": 385.82758993076914, "timestamp": "2025-12-10T20:49:51.345762+00:00", "meta": {"OBJECT_NAME": "STARLINK-35956", "OBJECT_ID": "2025-271N", "EPOCH": "2025-12-10T14:00:03.000384", "MEAN_MOTION": 15.59335965, "ECCENTRICITY": 0.00011561, "INCLINATION": 53.1602, "RA_OF_ASC_NODE": 197.5745, "ARG_OF_PERICENTER": 124.1077, "MEAN_ANOMALY": 152.5352, "EPHEMERIS_TYPE": 0, "CLASSIFICATION_TYPE": "U", "NORAD_CAT_ID": 66629, "ELEMENT_SET_NO": 999, "REV_AT_EPOCH": 389, "BSTAR": -0.028013094, "MEAN_MOTION_DOT": -0.01976775, "MEAN_MOTION_DDOT": 0}, "tle": {"line1": "1 66629U 25271N   25344.58336806 -.01976775  00000+0 -28013-1 0  9991", "line2": "2 66629  53.1602 197.5745 0001156 124.1077 152.5352 15.59335965  3895"}}, "geometry": {"type": "Point", "coordinates": [-98.70030794420028, 50.42577029438664]}}, {"type": "Feature", "properties": {"norad_id": 66630, "name": "STARLINK-35949", "group": "last-30-days", "lat": 51.038323483154464, "lon": -95.82443979248251, "alt_km": 385.77590968419554, "timestamp": "2025-12-10T20:49:51.345774+00:00", "meta": {"OBJECT_NAME": "STARLINK-35949", "OBJECT_ID": "2025-271P", "EPOCH": "2025-12-10T14:00:03.000384", "MEAN_MOTION": 15.59339511, "ECCENTRICITY": 0.0001027, "INCLINATION": 53.1601, "RA_OF_ASC_NODE": 197.5693, "ARG_OF_PERICENTER": 122.5971, "MEAN_ANOMALY": 155.964, "EPHEMERIS_TYPE": 0, "CLASSIFICATION_TYPE": "U", "NORAD_CAT_ID": 66630, "ELEMENT_SET_NO": 999, "REV_AT_EPOCH": 389, "BSTAR": -0.028140995, "MEAN_MOTION_DOT": -0.01984836, "MEAN_MOTION_DDOT": 0}, "tle": {"line1": "1 66630U 25271P   25344.58336806 -.01984836  00000+0 -28141-1 0  9992", "line2": "2 66630  53.1601 197.5693 0001027 122.5971 155.9640 15.59339511  3898"}}, "geometry": {"type": "Point", "coordinates": [-95.82443979248251, 51.038323483154464]}}, {"type": "Feature", "properties": {"norad_id": 66631, "name": "STARLINK-35965", "group": "last-30-days", "lat": 51.57649417568261, "lon": -92.88477225020466, "alt_km": 385.7552996407594, "timestamp": "2025-12-10T20:49:51.345784+00:00", "meta": {"OBJECT_NAME": "STARLINK-35965", "OBJECT_ID": "2025-271Q", "EPOCH": "2025-12-10T14:00:03.000384", "MEAN_MOTION": 15.59330946, "ECCENTRICITY": 9.387e-05, "INCLINATION": 53.1601, "RA_OF_ASC_NODE": 197.5662, "ARG_OF_PERICENTER": 107.9045, "MEAN_ANOMALY": 172.5737, "EPHEMERIS_TYPE": 0, "CLASSIFICATION_TYPE": "U", "NORAD_CAT_ID": 66631, "ELEMENT_SET_NO": 999, "REV_AT_EPOCH": 389, "BSTAR": -0.027890723, "MEAN_MOTION_DOT": -0.01968713, "MEAN_MOTION_DDOT": 0}, "tle": {"line1": "1 66631U 25271Q   25344.58336806 -.01968713  00000+0 -27891-1 0  9990", "line2": "2 66631  53.1601 197.5662 0000938 107.9045 172.5737 15.59330946  3899"}}, "geometry": {"type": "Point", "coordinates": [-92.88477225020466, 51.57649417568261]}}, {"type": "Feature", "properties": {"norad_id": 66632, "name": "STARLINK-35973", "group": "last-30-days", "lat": 52.041039539496495, "lon": -89.8693264978554, "alt_km": 385.5384393384247, "timestamp": "2025-12-10T20:49:51.345793+00:00", "meta": {"OBJECT_NAME": "STARLINK-35973", "OBJECT_ID": "2025-271R", "EPOCH": "2025-12-10T14:00:03.000384", "MEAN_MOTION": 15.59337924, "ECCENTRICITY": 0.00011194, "INCLINATION": 53.1602, "RA_OF_ASC_NODE": 197.5623, "ARG_OF_PERICENTER": 120.8053, "MEAN_ANOMALY": 161.5901, "EPHEMERIS_TYPE": 0, "CLASSIFICATION_TYPE": "U", "NORAD_CAT_ID": 66632, "ELEMENT_SET_NO": 999, "REV_AT_EPOCH": 383, "BSTAR": -0.02809108, "MEAN_MOTION_DOT": -0.01981706, "MEAN_MOTION_DDOT": 0}, "tle": {"line1": "1 66632U 25271R   25344.58336806 -.01981706  00000+0 -28091-1 0  9991", "line2": "2 66632  53.1602 197.5623 0001119 120.8053 161.5901 15.59337924  3831"}}, "geometry": {"type": "Point", "coordinates": [-89.8693264978554, 52.041039539496495]}}, {"type": "Feature", "properties": {"norad_id": 66633, "name": "STARLINK-35948", "group": "last-30-days", "lat": 52.42674852633712, "lon": -86.80026822110365, "alt_km": 385.4671735488546, "timestamp": "2025-12-10T20:49:51.345805+00:00", "meta": {"OBJECT_NAME": "STARLINK-35948", "OBJECT_ID": "2025-271S", "EPOCH": "2025-12-10T14:00:03.000384", "MEAN_MOTION": 15.59338785, "ECCENTRICITY": 0.00010755, "INCLINATION": 53.1605, "RA_OF_ASC_NODE": 197.5571, "ARG_OF_PERICENTER": 117.3306, "MEAN_ANOMALY": 166.9818, "EPHEMERIS_TYPE": 0, "CLASSIFICATION_TYPE": "U", "NORAD_CAT_ID": 66633, "ELEMENT_SET_NO": 999, "REV_AT_EPOCH": 389, "BSTAR": -0.028113012, "MEAN_MOTION_DOT": -0.0198309, "MEAN_MOTION_DDOT": 0}, "tle": {"line1": "1 66633U 25271S   25344.58336806 -.01983090  00000+0 -28113-1 0  9995", "line2": "2 66633  53.1605 197.5571 0001075 117.3306 166.9818 15.59338785  3898"}}, "geometry": {"type": "Point", "coordinates": [-86.80026822110365, 52.42674852633712]}}, {"type": "Feature", "properties": {"norad_id": 66634, "name": "STARLINK-35967", "group": "last-30-days", "lat": 52.73063645534978, "lon": -83.68637777084078, "alt_km": 385.39422168813326, "timestamp": "2025-12-10T20:49:51.345815+00:00", "meta": {"OBJECT_NAME": "STARLINK-35967", "OBJECT_ID": "2025-271T", "EPOCH": "2025-12-10T14:00:03.000384", "MEAN_MOTION": 15.59340761, "ECCENTRICITY": 0.00011384, "INCLINATION": 53.1604, "RA_OF_ASC_NODE": 197.5529, "ARG_OF_PERICENTER": 120.0579, "MEAN_ANOMALY": 166.1696, "EPHEMERIS_TYPE": 0, "CLASSIFICATION_TYPE": "U", "NORAD_CAT_ID": 66634, "ELEMENT_SET_NO": 999, "REV_AT_EPOCH": 382, "BSTAR": -0.028148523, "MEAN_MOTION_DOT": -0.01985462, "MEAN_MOTION_DDOT": 0}, "tle": {"line1": "1 66634U 25271T   25344.58336806 -.01985462  00000+0 -28149-1 0  9990", "line2": "2 66634  53.1604 197.5529 0001138 120.0579 166.1696 15.59340761  3820"}}, "geometry": {"type": "Point", "coordinates": [-83.68637777084078, 52.73063645534978]}}, {"type": "Feature", "properties": {"norad_id": 66635, "name": "STARLINK-35955", "group": "last-30-days", "lat": 52.95179050486981, "lon": -80.534315881372, "alt_km": 385.4079778795258, "timestamp": "2025-12-10T20:49:51.345824+00:00", "meta": {"OBJECT_NAME": "STARLINK-35955", "OBJECT_ID": "2025-271U", "EPOCH": "2025-12-10T14:00:03.000384", "MEAN_MOTION": 15.59332894, "ECCENTRICITY": 0.00010294, "INCLINATION": 53.1604, "RA_OF_ASC_NODE": 197.5493, "ARG_OF_PERICENTER": 119.9878, "MEAN_ANOMALY": 168.1575, "EPHEMERIS_TYPE": 0, "CLASSIFICATION_TYPE": "U", "NORAD_CAT_ID": 66635, "ELEMENT_SET_NO": 999, "REV_AT_EPOCH": 389, "BSTAR": -0.027946532, "MEAN_MOTION_DOT": -0.01972361, "MEAN_MOTION_DDOT": 0}, "tle": {"line1": "1 66635U 25271U   25344.58336806 -.01972361  00000+0 -27947-1 0  9990", "line2": "2 66635  53.1604 197.5493 0001029 119.9878 168.1575 15.59332894  3892"}}, "geometry": {"type": "Point", "coordinates": [-80.534315881372, 52.95179050486981]}}, {"type": "Feature", "properties": {"norad_id": 66636, "name": "STARLINK-35968", "group": "last-30-days", "lat": 53.088498240928715, "lon": -77.35381991532887, "alt_km": 385.34897843235285, "timestamp": "2025-12-10T20:49:51.345834+00:00", "meta": {"OBJECT_NAME": "STARLINK-35968", "OBJECT_ID": "2025-271V", "EPOCH": "2025-12-10T14:00:03.000384", "MEAN_MOTION": 15.59337798, "ECCENTRICITY": 0.00010924, "INCLINATION": 53.1602, "RA_OF_ASC_NODE": 197.5451, "ARG_OF_PERICENTER": 121.6072, "MEAN_ANOMALY": 168.4531, "EPHEMERIS_TYPE": 0, "CLASSIFICATION_TYPE": "U", "NORAD_CAT_ID": 66636, "ELEMENT_SET_NO": 999, "REV_AT_EPOCH": 389, "BSTAR": -0.028049016, "MEAN_MOTION_DOT": -0.01979076, "MEAN_MOTION_DDOT": 0}, "tle": {"line1": "1 66636U 25271V   25344.58336806 -.01979076  00000+0 -28049-1 0  9995", "line2": "2 66636  53.1602 197.5451 0001092 121.6072 168.4531 15.59337798  3894"}}, "geometry": {"type": "Point", "coordinates": [-77.35381991532887, 53.088498240928715]}}, {"type": "Feature", "properties": {"norad_id": 66637, "name": "STARLINK-35953", "group": "last-30-days", "lat": 53.14006559377331, "lon": -74.15937467411317, "alt_km": 385.4363911332175, "timestamp": "2025-12-10T20:49:51.345843+00:00", "meta": {"OBJECT_NAME": "STARLINK-35953", "OBJECT_ID": "2025-271W", "EPOCH": "2025-12-10T14:00:03.000384", "MEAN_MOTION": 15.59331367, "ECCENTRICITY": 8.885e-05, "INCLINATION": 53.1603, "RA_OF_ASC_NODE": 197.5413, "ARG_OF_PERICENTER": 101.4781, "MEAN_ANOMALY": 190.5026, "EPHEMERIS_TYPE": 0, "CLASSIFICATION_TYPE": "U", "NORAD_CAT_ID": 66637, "ELEMENT_SET_NO": 999, "REV_AT_EPOCH": 389, "BSTAR": -0.027917707, "MEAN_MOTION_DOT": -0.01970379, "MEAN_MOTION_DDOT": 0}, "tle": {"line1": "1 66637U 25271W   25344.58336806 -.01970379  00000+0 -27918-1 0  9997", "line2": "2 66637  53.1603 197.5413 0000888 101.4781 190.5026 15.59331367  3890"}}, "geometry": {"type": "Point", "coordinates": [-74.15937467411317, 53.14006559377331]}}, {"type": "Feature", "properties": {"norad_id": 66638, "name": "STARLINK-35972", "group": "last-30-days", "lat": 53.10558821998173, "lon": -70.96516709284286, "alt_km": 385.40697379520316, "timestamp": "2025-12-10T20:49:51.345853+00:00", "meta": {"OBJECT_NAME": "STARLINK-35972", "OBJECT_ID": "2025-271X", "EPOCH": "2025-12-10T14:00:03.000384", "MEAN_MOTION": 15.59332634, "ECCENTRICITY": 9.215e-05, "INCLINATION": 53.1601, "RA_OF_ASC_NODE": 197.5375, "ARG_OF_PERICENTER": 102.2705, "MEAN_ANOMALY": 191.6249, "EPHEMERIS_TYPE": 0, "CLASSIFICATION_TYPE": "U", "NORAD_CAT_ID": 66638, "ELEMENT_SET_NO": 999, "REV_AT_EPOCH": 389, "BSTAR": -0.02791383, "MEAN_MOTION_DOT": -0.01970246, "MEAN_MOTION_DDOT": 0}, "tle": {"line1": "1 66638U 25271X   25344.58336806 -.01970246  00000+0 -27914-1 0  9997", "line2": "2 66638  53.1601 197.5375 0000921 102.2705 191.6249 15.59332634  3896"}}, "geometry": {"type": "Point", "coordinates": [-70.96516709284286, 53.10558821998173]}}]}